PROBA-1                 
1 26958U 01049B   22231.48648929  .00000855  00000+0  76788-4 0  9991
2 26958  97.8265 191.3759 0072470 133.2203 227.5101 14.96485133133838
BIRD 2                  
1 26959U 01049C   22231.26907181  .00014823  00000+0  30887-3 0  9995
2 26959  97.7625 327.3620 0007336 139.4788 220.7007 15.45669723462885
CUTE-1 (CO-55)          
1 27844U 03031E   22230.95883714  .00000201  00000+0  10992-3 0  9992
2 27844  98.6797 237.7034 0008656 283.2704  76.7508 14.22481293992751
CUBESAT XI-IV (CO-57)   
1 27848U 03031J   22231.22280882  .00000154  00000+0  89516-4 0  9990
2 27848  98.6843 238.4699 0008653 298.3595  61.6710 14.22034635992600
GENESIS 1               
1 29252U 06029A   22231.45513588  .00004132  00000+0  18659-3 0  9997
2 29252  64.5205 224.1378 0056727 252.9809 106.5095 15.21100669888554
FALCONSAT-3             
1 30776U 07006E   22231.35169662  .00047286  00000+0  61689-3 0  9993
2 30776  35.4291 206.9597 0004466 259.2031 100.8200 15.57601440859386
GENESIS 2               
1 31789U 07028A   22231.44179274  .00004060  00000+0  19050-3 0  9990
2 31789  64.4950 267.5215 0053467 305.9602  53.6568 15.19969149835470
APRIZESAT 4             
1 35684U 09041D   22231.25954374  .00000430  00000+0  63864-4 0  9996
2 35684  98.3107 247.0571 0047502 148.9148 211.4888 14.79701535704358
APRIZESAT 3             
1 35686U 09041F   22231.44262019  .00000554  00000+0  64247-4 0  9990
2 35686  98.1061 319.5198 0071538 341.5993  18.2637 14.88011374707973
PROBA-2                 
1 36037U 09059B   22231.49711356  .00000116  00000+0  38781-4 0  9996
2 36037  98.2249  56.9074 0012123 275.4238  84.5575 14.53282870678416
APRIZESAT 5             
1 37792U 11044E   22231.42270726  .00000388  00000+0  63311-4 0  9994
2 37792  98.3160 108.6804 0058048 162.3623 197.9618 14.75811998592282
APRIZESAT 6             
1 37793U 11044F   22231.49482615  .00000341  00000+0  61193-4 0  9999
2 37793  98.3952  85.6906 0045804 214.3512 210.7515 14.72830321591142
TET-1                   
1 38710U 12039D   22231.29228638  .00076183  00000+0  46351-3 0  9990
2 38710  97.5058 316.9233 0001836 160.0889 200.0449 15.77247782567290
PROBA-V                 
1 39159U 13021A   22231.36539428  .00000013  00000+0  23944-4 0  9993
2 39159  98.3537 264.0801 0002951 265.9141  94.1701 14.23044598482275
STPSAT-3                
1 39380U 13064A   22230.82682153  .00041345  00000+0  79567-3 0  9994
2 39380  40.4984  22.1132 0006561  29.5183 330.6005 15.47080663490607
APRIZESAT 7             
1 39416U 13066A   22231.44201176  .00000599  00000+0  76030-4 0  9996
2 39416  97.5771 208.4391 0041539 148.6432 211.7273 14.84530642473383
APRIZESAT 8             
1 39425U 13066K   22231.46013454  .00000440  00000+0  61212-4 0  9999
2 39425  97.6318 199.9435 0051073 192.5637 167.4307 14.81678480472297
