[{"OBJECT_NAME":"PROBA-1","OBJECT_ID":"2001-049B","EPOCH":"2022-08-19T11:40:32.674656","MEAN_MOTION":14.96485133,"ECCENTRICITY":0.007247,"INCLINATION":97.8265,"RA_OF_ASC_NODE":191.3759,"ARG_OF_PERICENTER":133.2203,"MEAN_ANOMALY":227.5101,"EPHEMERIS_TYPE":0,"CLASSIFICATION_TYPE":"U","NORAD_CAT_ID":26958,"ELEMENT_SET_NO":999,"REV_AT_EPOCH":13383,"BSTAR":7.6788e-5,"MEAN_MOTION_DOT":8.55e-6,"MEAN_MOTION_DDOT":0},{"OBJECT_NAME":"BIRD 2","OBJECT_ID":"2001-049C","EPOCH":"2022-08-19T06:27:27.804384","MEAN_MOTION":15.45669723,"ECCENTRICITY":0.0007336,"INCLINATION":97.7625,"RA_OF_ASC_NODE":327.362,"ARG_OF_PERICENTER":139.4788,"MEAN_ANOMALY":220.7007,"EPHEMERIS_TYPE":0,"CLASSIFICATION_TYPE":"U","NORAD_CAT_ID":26959,"ELEMENT_SET_NO":999,"REV_AT_EPOCH":46288,"BSTAR":0.00030887,"MEAN_MOTION_DOT":0.00014823,"MEAN_MOTION_DDOT":0},{"OBJECT_NAME":"CUTE-1 (CO-55)","OBJECT_ID":"2003-031E","EPOCH":"2022-08-18T23:00:43.528896","MEAN_MOTION":14.22481293,"ECCENTRICITY":0.0008656,"INCLINATION":98.6797,"RA_OF_ASC_NODE":237.7034,"ARG_OF_PERICENTER":283.2704,"MEAN_ANOMALY":76.7508,"EPHEMERIS_TYPE":0,"CLASSIFICATION_TYPE":"U","NORAD_CAT_ID":27844,"ELEMENT_SET_NO":999,"REV_AT_EPOCH":99275,"BSTAR":0.00010992,"MEAN_MOTION_DOT":2.01e-6,"MEAN_MOTION_DDOT":0},{"OBJECT_NAME":"CUBESAT XI-IV (CO-57)","OBJECT_ID":"2003-031J","EPOCH":"2022-08-19T05:20:50.682048","MEAN_MOTION":14.22034635,"ECCENTRICITY":0.0008653,"INCLINATION":98.6843,"RA_OF_ASC_NODE":238.4699,"ARG_OF_PERICENTER":298.3595,"MEAN_ANOMALY":61.671,"EPHEMERIS_TYPE":0,"CLASSIFICATION_TYPE":"U","NORAD_CAT_ID":27848,"ELEMENT_SET_NO":999,"REV_AT_EPOCH":99260,"BSTAR":8.9516e-5,"MEAN_MOTION_DOT":1.54e-6,"MEAN_MOTION_DDOT":0},{"OBJECT_NAME":"GENESIS 1","OBJECT_ID":"2006-029A","EPOCH":"2022-08-19T10:55:23.740032","MEAN_MOTION":15.21100669,"ECCENTRICITY":0.0056727,"INCLINATION":64.5205,"RA_OF_ASC_NODE":224.1378,"ARG_OF_PERICENTER":252.9809,"MEAN_ANOMALY":106.5095,"EPHEMERIS_TYPE":0,"CLASSIFICATION_TYPE":"U","NORAD_CAT_ID":29252,"ELEMENT_SET_NO":999,"REV_AT_EPOCH":88855,"BSTAR":0.00018659,"MEAN_MOTION_DOT":4.132e-5,"MEAN_MOTION_DDOT":0},{"OBJECT_NAME":"FALCONSAT-3","OBJECT_ID":"2007-006E","EPOCH":"2022-08-19T08:26:26.587968","MEAN_MOTION":15.5760144,"ECCENTRICITY":0.0004466,"INCLINATION":35.4291,"RA_OF_ASC_NODE":206.9597,"ARG_OF_PERICENTER":259.2031,"MEAN_ANOMALY":100.82,"EPHEMERIS_TYPE":0,"CLASSIFICATION_TYPE":"U","NORAD_CAT_ID":30776,"ELEMENT_SET_NO":999,"REV_AT_EPOCH":85938,"BSTAR":0.00061689,"MEAN_MOTION_DOT":0.00047286,"MEAN_MOTION_DDOT":0},{"OBJECT_NAME":"GENESIS 2","OBJECT_ID":"2007-028A","EPOCH":"2022-08-19T10:36:10.892736","MEAN_MOTION":15.19969149,"ECCENTRICITY":0.0053467,"INCLINATION":64.495,"RA_OF_ASC_NODE":267.5215,"ARG_OF_PERICENTER":305.9602,"MEAN_ANOMALY":53.6568,"EPHEMERIS_TYPE":0,"CLASSIFICATION_TYPE":"U","NORAD_CAT_ID":31789,"ELEMENT_SET_NO":999,"REV_AT_EPOCH":83547,"BSTAR":0.0001905,"MEAN_MOTION_DOT":4.06e-5,"MEAN_MOTION_DDOT":0},{"OBJECT_NAME":"APRIZESAT 4","OBJECT_ID":"2009-041D","EPOCH":"2022-08-19T06:13:44.579136","MEAN_MOTION":14.79701535,"ECCENTRICITY":0.0047502,"INCLINATION":98.3107,"RA_OF_ASC_NODE":247.0571,"ARG_OF_PERICENTER":148.9148,"MEAN_ANOMALY":211.4888,"EPHEMERIS_TYPE":0,"CLASSIFICATION_TYPE":"U","NORAD_CAT_ID":35684,"ELEMENT_SET_NO":999,"REV_AT_EPOCH":70435,"BSTAR":6.3864e-5,"MEAN_MOTION_DOT":4.3e-6,"MEAN_MOTION_DDOT":0},{"OBJECT_NAME":"APRIZESAT 3","OBJECT_ID":"2009-041F","EPOCH":"2022-08-19T10:37:22.384416","MEAN_MOTION":14.88011374,"ECCENTRICITY":0.0071538,"INCLINATION":98.1061,"RA_OF_ASC_NODE":319.5198,"ARG_OF_PERICENTER":341.5993,"MEAN_ANOMALY":18.2637,"EPHEMERIS_TYPE":0,"CLASSIFICATION_TYPE":"U","NORAD_CAT_ID":35686,"ELEMENT_SET_NO":999,"REV_AT_EPOCH":70797,"BSTAR":6.4247e-5,"MEAN_MOTION_DOT":5.54e-6,"MEAN_MOTION_DDOT":0},{"OBJECT_NAME":"PROBA-2","OBJECT_ID":"2009-059B","EPOCH":"2022-08-19T11:55:50.611584","MEAN_MOTION":14.5328287,"ECCENTRICITY":0.0012123,"INCLINATION":98.2249,"RA_OF_ASC_NODE":56.9074,"ARG_OF_PERICENTER":275.4238,"MEAN_ANOMALY":84.5575,"EPHEMERIS_TYPE":0,"CLASSIFICATION_TYPE":"U","NORAD_CAT_ID":36037,"ELEMENT_SET_NO":999,"REV_AT_EPOCH":67841,"BSTAR":3.8781e-5,"MEAN_MOTION_DOT":1.16e-6,"MEAN_MOTION_DDOT":0},{"OBJECT_NAME":"APRIZESAT 5","OBJECT_ID":"2011-044E","EPOCH":"2022-08-19T10:08:41.907264","MEAN_MOTION":14.75811998,"ECCENTRICITY":0.0058048,"INCLINATION":98.316,"RA_OF_ASC_NODE":108.6804,"ARG_OF_PERICENTER":162.3623,"MEAN_ANOMALY":197.9618,"EPHEMERIS_TYPE":0,"CLASSIFICATION_TYPE":"U","NORAD_CAT_ID":37792,"ELEMENT_SET_NO":999,"REV_AT_EPOCH":59228,"BSTAR":6.3311e-5,"MEAN_MOTION_DOT":3.88e-6,"MEAN_MOTION_DDOT":0},{"OBJECT_NAME":"APRIZESAT 6","OBJECT_ID":"2011-044F","EPOCH":"2022-08-19T11:52:32.979360","MEAN_MOTION":14.72830321,"ECCENTRICITY":0.0045804,"INCLINATION":98.3952,"RA_OF_ASC_NODE":85.6906,"ARG_OF_PERICENTER":214.3512,"MEAN_ANOMALY":210.7515,"EPHEMERIS_TYPE":0,"CLASSIFICATION_TYPE":"U","NORAD_CAT_ID":37793,"ELEMENT_SET_NO":999,"REV_AT_EPOCH":59114,"BSTAR":6.1193e-5,"MEAN_MOTION_DOT":3.41e-6,"MEAN_MOTION_DDOT":0},{"OBJECT_NAME":"TET-1","OBJECT_ID":"2012-039D","EPOCH":"2022-08-19T07:00:53.543232","MEAN_MOTION":15.77247782,"ECCENTRICITY":0.0001836,"INCLINATION":97.5058,"RA_OF_ASC_NODE":316.9233,"ARG_OF_PERICENTER":160.0889,"MEAN_ANOMALY":200.0449,"EPHEMERIS_TYPE":0,"CLASSIFICATION_TYPE":"U","NORAD_CAT_ID":38710,"ELEMENT_SET_NO":999,"REV_AT_EPOCH":56729,"BSTAR":0.00046351,"MEAN_MOTION_DOT":0.00076183,"MEAN_MOTION_DDOT":0},{"OBJECT_NAME":"PROBA-V","OBJECT_ID":"2013-021A","EPOCH":"2022-08-19T08:46:10.065792","MEAN_MOTION":14.23044598,"ECCENTRICITY":0.0002951,"INCLINATION":98.3537,"RA_OF_ASC_NODE":264.0801,"ARG_OF_PERICENTER":265.9141,"MEAN_ANOMALY":94.1701,"EPHEMERIS_TYPE":0,"CLASSIFICATION_TYPE":"U","NORAD_CAT_ID":39159,"ELEMENT_SET_NO":999,"REV_AT_EPOCH":48227,"BSTAR":2.3944e-5,"MEAN_MOTION_DOT":1.3e-7,"MEAN_MOTION_DDOT":0},{"OBJECT_NAME":"STPSAT-3","OBJECT_ID":"2013-064A","EPOCH":"2022-08-18T19:50:37.380192","MEAN_MOTION":15.47080663,"ECCENTRICITY":0.0006561,"INCLINATION":40.4984,"RA_OF_ASC_NODE":22.1132,"ARG_OF_PERICENTER":29.5183,"MEAN_ANOMALY":330.6005,"EPHEMERIS_TYPE":0,"CLASSIFICATION_TYPE":"U","NORAD_CAT_ID":39380,"ELEMENT_SET_NO":999,"REV_AT_EPOCH":49060,"BSTAR":0.00079567,"MEAN_MOTION_DOT":0.00041345,"MEAN_MOTION_DDOT":0},{"OBJECT_NAME":"APRIZESAT 7","OBJECT_ID":"2013-066A","EPOCH":"2022-08-19T10:36:29.816064","MEAN_MOTION":14.84530642,"ECCENTRICITY":0.0041539,"INCLINATION":97.5771,"RA_OF_ASC_NODE":208.4391,"ARG_OF_PERICENTER":148.6432,"MEAN_ANOMALY":211.7273,"EPHEMERIS_TYPE":0,"CLASSIFICATION_TYPE":"U","NORAD_CAT_ID":39416,"ELEMENT_SET_NO":999,"REV_AT_EPOCH":47338,"BSTAR":7.603e-5,"MEAN_MOTION_DOT":5.99e-6,"MEAN_MOTION_DDOT":0},{"OBJECT_NAME":"APRIZESAT 8","OBJECT_ID":"2013-066K","EPOCH":"2022-08-19T11:02:35.624256","MEAN_MOTION":14.8167848,"ECCENTRICITY":0.0051073,"INCLINATION":97.6318,"RA_OF_ASC_NODE":199.9435,"ARG_OF_PERICENTER":192.5637,"MEAN_ANOMALY":167.4307,"EPHEMERIS_TYPE":0,"CLASSIFICATION_TYPE":"U","NORAD_CAT_ID":39425,"ELEMENT_SET_NO":999,"REV_AT_EPOCH":47229,"BSTAR":6.1212e-5,"MEAN_MOTION_DOT":4.4e-6,"MEAN_MOTION_DDOT":0}]